{
  "links" : {
    "next" : "https://api.nasa.gov/neo/rest/v1/feed?start_date=1998-03-23&end_date=1998-03-23&detailed=true&api_key=t0TVs3DtDT2H8Oy2Zy8m2eVrNsAVKAexjcZXUckd",
    "prev" : "https://api.nasa.gov/neo/rest/v1/feed?start_date=1998-03-21&end_date=1998-03-21&detailed=true&api_key=t0TVs3DtDT2H8Oy2Zy8m2eVrNsAVKAexjcZXUckd",
    "self" : "https://api.nasa.gov/neo/rest/v1/feed?start_date=1998-03-22&end_date=1998-03-22&detailed=true&api_key=t0TVs3DtDT2H8Oy2Zy8m2eVrNsAVKAexjcZXUckd"
  },
  "element_count" : 5,
  "near_earth_objects" : {
    "1998-03-22" : [ {
      "links" : {
        "self" : "https://api.nasa.gov/neo/rest/v1/neo/3727339?api_key=t0TVs3DtDT2H8Oy2Zy8m2eVrNsAVKAexjcZXUckd"
      },
      "neo_reference_id" : "3727339",
      "name" : "(2015 RK82)",
      "nasa_jpl_url" : "http://ssd.jpl.nasa.gov/sbdb.cgi?sstr=3727339",
      "absolute_magnitude_h" : 20.6,
      "estimated_diameter" : {
        "kilometers" : {
          "estimated_diameter_min" : 0.2016299194,
          "estimated_diameter_max" : 0.4508582062
        },
        "meters" : {
          "estimated_diameter_min" : 201.6299194428,
          "estimated_diameter_max" : 450.8582061718
        },
        "miles" : {
          "estimated_diameter_min" : 0.1252869847,
          "estimated_diameter_max" : 0.2801502144
        },
        "feet" : {
          "estimated_diameter_min" : 661.5155049046,
          "estimated_diameter_max" : 1479.1936371367
        }
      },
      "is_potentially_hazardous_asteroid" : false,
      "close_approach_data" : [ {
        "close_approach_date" : "1998-03-22",
        "epoch_date_close_approach" : 890553600000,
        "relative_velocity" : {
          "kilometers_per_second" : "10.5383611134",
          "kilometers_per_hour" : "37938.1000081579",
          "miles_per_hour" : "23573.2599745135"
        },
        "miss_distance" : {
          "astronomical" : "0.2393808011",
          "lunar" : "93.1191329956",
          "kilometers" : "35810860",
          "miles" : "22251836"
        },
        "orbiting_body" : "Earth"
      } ],
      "orbital_data" : {
        "orbit_id" : "10",
        "orbit_determination_date" : "2017-04-06 08:32:01",
        "orbit_uncertainty" : "5",
        "minimum_orbit_intersection" : ".13365",
        "jupiter_tisserand_invariant" : "5.249",
        "epoch_osculation" : "2458000.5",
        "eccentricity" : ".3536063896032581",
        "semi_major_axis" : "1.191347393066654",
        "inclination" : "10.18821567530559",
        "ascending_node_longitude" : "319.5492099731144",
        "orbital_period" : "474.9589273494616",
        "perihelion_distance" : ".7700793426411009",
        "perihelion_argument" : "203.3080295703906",
        "aphelion_distance" : "1.612615443492207",
        "perihelion_time" : "2458008.500911927457",
        "mean_anomaly" : "353.9356265815271",
        "mean_motion" : ".757960276710668",
        "equinox" : "J2000"
      }
    }, {
      "links" : {
        "self" : "https://api.nasa.gov/neo/rest/v1/neo/3745504?api_key=t0TVs3DtDT2H8Oy2Zy8m2eVrNsAVKAexjcZXUckd"
      },
      "neo_reference_id" : "3745504",
      "name" : "(2016 EF28)",
      "nasa_jpl_url" : "http://ssd.jpl.nasa.gov/sbdb.cgi?sstr=3745504",
      "absolute_magnitude_h" : 21.7,
      "estimated_diameter" : {
        "kilometers" : {
          "estimated_diameter_min" : 0.1214940408,
          "estimated_diameter_max" : 0.2716689341
        },
        "meters" : {
          "estimated_diameter_min" : 121.4940407996,
          "estimated_diameter_max" : 271.6689340891
        },
        "miles" : {
          "estimated_diameter_min" : 0.0754928736,
          "estimated_diameter_max" : 0.1688071972
        },
        "feet" : {
          "estimated_diameter_min" : 398.6025088171,
          "estimated_diameter_max" : 891.3023057169
        }
      },
      "is_potentially_hazardous_asteroid" : true,
      "close_approach_data" : [ {
        "close_approach_date" : "1998-03-22",
        "epoch_date_close_approach" : 890553600000,
        "relative_velocity" : {
          "kilometers_per_second" : "31.5575520323",
          "kilometers_per_hour" : "113607.1873161047",
          "miles_per_hour" : "70591.0881409429"
        },
        "miss_distance" : {
          "astronomical" : "0.4331165512",
          "lunar" : "168.4823455811",
          "kilometers" : "64793316",
          "miles" : "40260700"
        },
        "orbiting_body" : "Earth"
      } ],
      "orbital_data" : {
        "orbit_id" : "23",
        "orbit_determination_date" : "2017-04-06 08:27:47",
        "orbit_uncertainty" : "6",
        "minimum_orbit_intersection" : ".0234374",
        "jupiter_tisserand_invariant" : "3.682",
        "epoch_osculation" : "2458000.5",
        "eccentricity" : ".6579938760838013",
        "semi_major_axis" : "1.869842443456573",
        "inclination" : "5.151032467123238",
        "ascending_node_longitude" : "144.1711365042183",
        "orbital_period" : "933.9119816834038",
        "perihelion_distance" : ".6394975664205763",
        "perihelion_argument" : "291.7710083454175",
        "aphelion_distance" : "3.100187320492569",
        "perihelion_time" : "2458333.791185769760",
        "mean_anomaly" : "231.5244806466264",
        "mean_motion" : ".385475298594081",
        "equinox" : "J2000"
      }
    } ]
  }
}